$$SOE
2459580.500000000, A.D. 2022-Jan-01 00:00:00.0000, 2.163441477072732E+08, -1.677210670497264E+08, 9.529340844028056E+07,
2459587.500000000, A.D. 2022-Jan-08 00:00:00.0000, 2.234100233534392E+08, -1.575027424563217E+08, 9.529291260082996E+07,
2459594.500000000, A.D. 2022-Jan-15 00:00:00.0000, 2.300289807483502E+08, -1.469693200983348E+08, 9.510170890875137E+07,
2459601.500000000, A.D. 2022-Jan-22 00:00:00.0000, 2.361857790745485E+08, -1.361406019551159E+08, 9.471935119344746E+07,
2459608.500000000, A.D. 2022-Jan-29 00:00:00.0000, 2.418657602616121E+08, -1.250370314426523E+08, 9.414568839345516E+07,
2459615.500000000, A.D. 2022-Feb-05 00:00:00.0000, 2.470548707834187E+08, -1.136796930974498E+08, 9.338087142238849E+07,
2459622.500000000, A.D. 2022-Feb-12 00:00:00.0000, 2.517396877703276E+08, -1.020903129737078E+08, 9.242536028923421E+07,
2459629.500000000, A.D. 2022-Feb-19 00:00:00.0000, 2.559074482129153E+08, -9.029125715992039E+07, 9.127993177190465E+07,
2459636.500000000, A.D. 2022-Feb-26 00:00:00.0000, 2.595460800391380E+08, -7.830552889966157E+07, 8.994568768481940E+07,
2459643.500000000, A.D. 2022-Mar-05 00:00:00.0000, 2.626442353058659E+08, -6.615676467778321E+07, 8.842406364773409E+07,
2459650.500000000, A.D. 2022-Mar-12 00:00:00.0000, 2.651913257955695E+08, -5.386922906285408E+07, 8.671683829469109E+07,
2459657.500000000, A.D. 2022-Mar-19 00:00:00.0000, 2.671775611437431E+08, -4.146780798295619E+07, 8.482614287560961E+07,
2459664.500000000, A.D. 2022-Mar-26 00:00:00.0000, 2.685939895573811E+08, -2.897800012566053E+07, 8.275447119648492E+07,
2459671.500000000, A.D. 2022-Apr-02 00:00:00.0000, 2.694325412106746E+08, -1.642590618357152E+07, 8.050468982666063E+07,
2459678.500000000, A.D. 2022-Apr-09 00:00:00.0000, 2.696860745819502E+08, -3.838215588159151E+06, 7.808004847450511E+07,
2459685.500000000, A.D. 2022-Apr-16 00:00:00.0000, 2.693484260452331E+08, 8.757810299463861E+06, 7.548419046059938E+07,
2459692.500000000, A.D. 2022-Apr-23 00:00:00.0000, 2.684144613766373E+08, 2.133436003356630E+07, 7.272116339534837E+07,
2459699.500000000, A.D. 2022-Apr-30 00:00:00.0000, 2.668801272142496E+08, 3.386309713706136E+07, 6.979542994761766E+07,
2459706.500000000, A.D. 2022-May-07 00:00:00.0000, 2.647425053907936E+08, 4.631518681277771E+07, 6.671187813462944E+07,
2459713.500000000, A.D. 2022-May-14 00:00:00.0000, 2.619998713251600E+08, 5.866132779867698E+07, 6.347583110362139E+07,
2459720.500000000, A.D. 2022-May-21 00:00:00.0000, 2.586517541910889E+08, 7.087179058902124E+07, 6.009305649162304E+07,
2459727.500000000, A.D. 2022-May-28 00:00:00.0000, 2.546989980785267E+08, 8.291646153022483E+07, 5.656977515119466E+07,
2459734.500000000, A.D. 2022-Jun-04 00:00:00.0000, 2.501438240539563E+08, 9.476489294624828E+07, 5.291266899455366E+07,
2459741.500000000, A.D. 2022-Jun-11 00:00:00.0000, 2.449898928230727E+08, 1.063863597580885E+08, 4.912888772778340E+07,
2459748.500000000, A.D. 2022-Jun-18 00:00:00.0000, 2.392423675190960E+08, 1.177499230593936E+08, 4.522605423948970E+07,
2459755.500000000, A.D. 2022-Jun-25 00:00:00.0000, 2.329079760538768E+08, 1.288245010386553E+08, 4.121226838736261E+07,
2459762.500000000, A.D. 2022-Jul-02 00:00:00.0000, 2.259950724935110E+08, 1.395789475649022E+08, 3.709610889419492E+07,
2459769.500000000, A.D. 2022-Jul-09 00:00:00.0000, 2.185136970883726E+08, 1.499821389333424E+08, 3.288663303722188E+07,
2459776.500000000, A.D. 2022-Jul-16 00:00:00.0000, 2.104756340249144E+08, 1.600030700858045E+08, 2.859337390104303E+07,
2459783.500000000, A.D. 2022-Jul-23 00:00:00.0000, 2.018944636811407E+08, 1.696109605491547E+08, 2.422633507014770E+07,
2459790.500000000, A.D. 2022-Jul-30 00:00:00.0000, 1.927856083889804E+08, 1.787753668649071E+08, 1.979598217490997E+07,
2459797.500000000, A.D. 2022-Aug-06 00:00:00.0000, 1.831663741964447E+08, 1.874663021666839E+08, 1.531323072031964E+07,
2459804.500000000, A.D. 2022-Aug-13 00:00:00.0000, 1.730559866285258E+08, 1.956543655077850E+08, 1.078943019900817E+07,
2459811.500000000, A.D. 2022-Aug-20 00:00:00.0000, 1.624756176346725E+08, 2.033108801175143E+08, 6.236344293656752E+06,
2459818.500000000, A.D. 2022-Aug-27 00:00:00.0000, 1.514484024892643E+08, 2.104080393603616E+08, 1.666126817326799E+06,
2459825.500000000, A.D. 2022-Sep-03 00:00:00.0000, 1.399994455502300E+08, 2.169190595984002E+08, -2.908706897216812E+06,
2459832.500000000, A.D. 2022-Sep-10 00:00:00.0000, 1.281558136154691E+08, 2.228183390910692E+08, -7.475313379690588E+06,
2459839.500000000, A.D. 2022-Sep-17 00:00:00.0000, 1.159465155833834E+08, 2.280816218271775E+08, -1.202055933947869E+07,
2459846.500000000, A.D. 2022-Sep-24 00:00:00.0000, 1.034024672166449E+08, 2.326861649116628E+08, -1.653106502476567E+07,
2459853.500000000, A.D. 2022-Oct-01 00:00:00.0000, 9.055644008574517E+07, 2.366109079332506E+08, -2.099325267112824E+07,
2459860.500000000, A.D. 2022-Oct-08 00:00:00.0000, 7.744299407610777E+07, 2.398366430679060E+08, -2.539339997573937E+07,
2459867.500000000, A.D. 2022-Oct-15 00:00:00.0000, 6.409839169593161E+07, 2.423461851369796E+08, -2.971769826592246E+07,
2459874.500000000, A.D. 2022-Oct-22 00:00:00.0000, 5.056049138463405E+07, 2.441245377267752E+08, -3.395231504188083E+07,
2459881.500000000, A.D. 2022-Oct-29 00:00:00.0000, 3.686862193539724E+07, 2.451590504326494E+08, -3.808346096274494E+07,
2459888.500000000, A.D. 2022-Nov-05 00:00:00.0000, 2.306344009077999E+07, 2.454395675391800E+08, -4.209746077784232E+07,
2459895.500000000, A.D. 2022-Nov-12 00:00:00.0000, 9.186769651017152E+06, 2.449585668516679E+08, -4.598082733478770E+07,
2459902.500000000, A.D. 2022-Nov-19 00:00:00.0000, -4.718577970509151E+06, 2.437112851459245E+08, -4.972033797497080E+07,
2459909.500000000, A.D. 2022-Nov-26 00:00:00.0000, -1.860900043870541E+07, 2.416958273098361E+08, -5.330311257017332E+07,
2459916.500000000, A.D. 2022-Dec-03 00:00:00.0000, -3.244031682458317E+07, 2.389132567440389E+08, -5.671669232256253E+07,
2459923.500000000, A.D. 2022-Dec-10 00:00:00.0000, -4.616799368332537E+07, 2.353676647958614E+08, -5.994911835988079E+07,
2459930.500000000, A.D. 2022-Dec-17 00:00:00.0000, -5.974738263727880E+07, 2.310662172051217E+08, -6.298900910109176E+07,
2459937.500000000, A.D. 2022-Dec-24 00:00:00.0000, -7.313396678342839E+07, 2.260191758167139E+08, -6.582563534229270E+07,
2459944.500000000, A.D. 2022-Dec-31 00:00:00.0000, -8.628361269062397E+07, 2.202398943689319E+08, -6.844899200833298E+07,
2459951.500000000, A.D. 2023-Jan-07 00:00:00.0000, -9.915282474209169E+07, 2.137447884592431E+08, -7.084986543831620E+07,
2459958.500000000, A.D. 2023-Jan-14 00:00:00.0000, -1.116990004928917E+08, 2.065532798131137E+08, -7.301989496680775E+07,
2459965.500000000, A.D. 2023-Jan-21 00:00:00.0000, -1.238806842733685E+08, 1.986877118155726E+08, -7.495162804447854E+07,
2459972.500000000, A.D. 2023-Jan-28 00:00:00.0000, -1.356578119602359E+08, 1.901732367307513E+08, -7.663856836588381E+07,
2459979.500000000, A.D. 2023-Feb-04 00:00:00.0000, -1.469919438365259E+08, 1.810376787981833E+08, -7.807521600723678E+07,
2459986.500000000, A.D. 2023-Feb-11 00:00:00.0000, -1.578464841947355E+08, 1.713113746876872E+08, -7.925709886146344E+07,
2459993.500000000, A.D. 2023-Feb-18 00:00:00.0000, -1.681868848432747E+08, 1.610269926016101E+08, -8.018079502193907E+07,
2460000.500000000, A.D. 2023-Feb-25 00:00:00.0000, -1.779808296782232E+08, 1.502193323718296E+08, -8.084394591929682E+07,
2460007.500000000, A.D. 2023-Mar-04 00:00:00.0000, -1.871983980277386E+08, 1.389251094158289E+08, -8.124526016721728E+07,
2460014.500000000, A.D. 2023-Mar-11 00:00:00.0000, -1.958122049842921E+08, 1.271827256533513E+08, -8.138450824136925E+07,
2460021.500000000, A.D. 2023-Mar-18 00:00:00.0000, -2.037975173933220E+08, 1.150320306036655E+08, -8.126250828595315E+07,
2460028.500000000, A.D. 2023-Mar-25 00:00:00.0000, -2.111323445025712E+08, 1.025140759652091E+08, -8.088110350914803E+07,
2460035.500000000, A.D. 2023-Apr-01 00:00:00.0000, -2.177975025487313E+08, 8.967086741122642E+07, -8.024313175004479E+07,
2460042.500000000, A.D. 2023-Apr-08 00:00:00.0000, -2.237766540778170E+08, 7.654511807312930E+07, -7.935238775477217E+07,
2460049.500000000, A.D. 2023-Apr-15 00:00:00.0000, -2.290563249737919E+08, 6.318000568499150E+07, -7.821357883433273E+07,
2460056.500000000, A.D. 2023-Apr-22 00:00:00.0000, -2.336258984353115E+08, 4.961893319594878E+07, -7.683227519471779E+07,
2460063.500000000, A.D. 2023-Apr-29 00:00:00.0000, -2.374775845522807E+08, 3.590529768388858E+07, -7.521485591312921E+07,
2460070.500000000, A.D. 2023-May-06 00:00:00.0000, -2.406063689203614E+08, 2.208227158949203E+07, -7.336845117084880E+07,
2460077.500000000, A.D. 2023-May-13 00:00:00.0000, -2.430099432005323E+08, 8.192597265039049E+06, -7.130088165672447E+07,
2460084.500000000, A.D. 2023-May-20 00:00:00.0000, -2.446886194841202E+08, -5.721604110139951E+06, -6.902059610398178E+07,
2460091.500000000, A.D. 2023-May-27 00:00:00.0000, -2.456452304486712E+08, -1.961900810706821E+07, -6.653660781596570E+07,
2460098.500000000, A.D. 2023-Jun-03 00:00:00.0000, -2.458850174624322E+08, -3.345924630563614E+07, -6.385843095802263E+07,
2460105.500000000, A.D. 2023-Jun-10 00:00:00.0000, -2.454155088305239E+08, -4.720304882071550E+07, -6.099601734540340E+07,
2460112.500000000, A.D. 2023-Jun-17 00:00:00.0000, -2.442463902753170E+08, -6.081237003634614E+07, -5.795969441484169E+07,
2460119.500000000, A.D. 2023-Jun-24 00:00:00.0000, -2.423893694291408E+08, -7.425049763215330E+07, -5.476010500090259E+07,
2460126.500000000, A.D. 2023-Jul-01 00:00:00.0000, -2.398580360511340E+08, -8.748214444455920E+07, -5.140814936777849E+07,
2460133.500000000, A.D. 2023-Jul-08 00:00:00.0000, -2.366677214403163E+08, -1.004735229221192E+08, -4.791492966894582E+07,
2460140.500000000, A.D. 2023-Jul-15 00:00:00.0000, -2.328353599431368E+08, -1.131924057703678E+08, -4.429169725487760E+07,
2460147.500000000, A.D. 2023-Jul-22 00:00:00.0000, -2.283793504808669E+08, -1.256081747298350E+08, -4.054980346774928E+07,
$$EOE